[{"OBJECT_NAME":"JILIN-1 GAOFEN 03D09","OBJECT_ID":"2022-098B","EPOCH":"2026-03-09T22:57:40.546656","MEAN_MOTION":15.55250114,"ECCENTRICITY":0.00025765,"INCLINATION":97.5458,"RA_OF_ASC_NODE":192.2234,"ARG_OF_PERICENTER":20.0829,"MEAN_ANOMALY":340.0526,"EPHEMERIS_TYPE":0,"CLASSIFICATION_TYPE":"U","NORAD_CAT_ID":53445,"ELEMENT_SET_NO":999,"REV_AT_EPOCH":19915,"BSTAR":0.00083701558,"MEAN_MOTION_DOT":0.00056849,"MEAN_MOTION_DDOT":0},{"OBJECT_NAME":"STARLINK-36620","OBJECT_ID":"2026-022G","EPOCH":"2026-03-09T22:00:01.999584","MEAN_MOTION":15.69211833,"ECCENTRICITY":0.00014478,"INCLINATION":97.2845,"RA_OF_ASC_NODE":102.899,"ARG_OF_PERICENTER":67.0153,"MEAN_ANOMALY":315.383,"EPHEMERIS_TYPE":0,"CLASSIFICATION_TYPE":"U","NORAD_CAT_ID":67654,"ELEMENT_SET_NO":999,"REV_AT_EPOCH":607,"BSTAR":-0.018655391,"MEAN_MOTION_DOT":-0.01919279,"MEAN_MOTION_DDOT":0}]
